{
  "type": "FeatureCollection",
  "features": [
    {
      "type": "Feature",
      "properties": {
        "norad_id": 43719,
        "name": "HYSIS",
        "group": "resource",
        "lat": 17.950714705132217,
        "lon": -136.62179704937995,
        "alt_km": 634.2728427333805,
        "timestamp": "2025-12-03T17:47:50.369844+00:00",
        "meta_object_name": "HYSIS",
        "meta_object_id": "2018-096A",
        "meta_epoch": "2025-12-03T10:34:18.118272",
        "meta_mean_motion": 14.78598612,
        "meta_eccentricity": 0.0001613,
        "meta_inclination": 98.0112,
        "meta_ra_of_asc_node": 40.4635,
        "meta_arg_of_pericenter": 67.1703,
        "meta_mean_anomaly": 292.9678,
        "meta_ephemeris_type": 0,
        "meta_classification_type": "U",
        "meta_norad_cat_id": 43719,
        "meta_element_set_no": 999,
        "meta_rev_at_epoch": 37849,
        "meta_bstar": 2.719e-05,
        "meta_mean_motion_dot": 1.47e-06,
        "meta_mean_motion_ddot": 0,
        "tle_line1": "1 43719U 18096A   25337.44048748  .00000147  00000+0  27190-4 0  9991",
        "tle_line2": "2 43719  98.0112  40.4635 0001613  67.1703 292.9678 14.78598612378499"
      },
      "geometry": {
        "type": "Point",
        "coordinates": [
          -136.62179704937995,
          17.950714705132217
        ]
      }
    },
    {
      "type": "Feature",
      "properties": {
        "norad_id": 43783,
        "name": "KAZSTSAT",
        "group": "resource",
        "lat": 82.42654690008189,
        "lon": -66.71514618066365,
        "alt_km": 561.1993898905894,
        "timestamp": "2025-12-03T17:47:50.369855+00:00",
        "meta_object_name": "KAZSTSAT",
        "meta_object_id": "2018-099AB",
        "meta_epoch": "2025-12-03T09:23:41.474400",
        "meta_mean_motion": 14.99300717,
        "meta_eccentricity": 0.0006531,
        "meta_inclination": 97.4553,
        "meta_ra_of_asc_node": 12.9784,
        "meta_arg_of_pericenter": 4.7041,
        "meta_mean_anomaly": 355.4243,
        "meta_ephemeris_type": 0,
        "meta_classification_type": "U",
        "meta_norad_cat_id": 43783,
        "meta_element_set_no": 999,
        "meta_rev_at_epoch": 38196,
        "meta_bstar": 0.00023582,
        "meta_mean_motion_dot": 2.825e-05,
        "meta_mean_motion_ddot": 0,
        "tle_line1": "1 43783U 18099AB  25337.39145225  .00002825  00000+0  23582-3 0  9992",
        "tle_line2": "2 43783  97.4553  12.9784 0006531   4.7041 355.4243 14.99300717381966"
      },
      "geometry": {
        "type": "Point",
        "coordinates": [
          -66.71514618066365,
          82.42654690008189
        ]
      }
    },
    {
      "type": "Feature",
      "properties": {
        "norad_id": 43831,
        "name": "SAUDISAT 5A",
        "group": "resource",
        "lat": 12.296363874311812,
        "lon": 36.49805158747346,
        "alt_km": 490.88444254262504,
        "timestamp": "2025-12-03T17:47:50.369866+00:00",
        "meta_object_name": "SAUDISAT 5A",
        "meta_object_id": "2018-102A",
        "meta_epoch": "2025-12-03T13:01:12.813888",
        "meta_mean_motion": 15.25472342,
        "meta_eccentricity": 0.0011795,
        "meta_inclination": 97.3374,
        "meta_ra_of_asc_node": 37.9123,
        "meta_arg_of_pericenter": 104.4642,
        "meta_mean_anomaly": 255.7905,
        "meta_ephemeris_type": 0,
        "meta_classification_type": "U",
        "meta_norad_cat_id": 43831,
        "meta_element_set_no": 999,
        "meta_rev_at_epoch": 38582,
        "meta_bstar": 0.00035748,
        "meta_mean_motion_dot": 8.996e-05,
        "meta_mean_motion_ddot": 0,
        "tle_line1": "1 43831U 18102A   25337.54250942  .00008996  00000+0  35748-3 0  9993",
        "tle_line2": "2 43831  97.3374  37.9123 0011795 104.4642 255.7905 15.25472342385827"
      },
      "geometry": {
        "type": "Point",
        "coordinates": [
          36.49805158747346,
          12.296363874311812
        ]
      }
    },
    {
      "type": "Feature",
      "properties": {
        "norad_id": 43833,
        "name": "SAUDISAT 5B",
        "group": "resource",
        "lat": 52.60415864475162,
        "lon": 31.11284868533593,
        "alt_km": 478.2536688641012,
        "timestamp": "2025-12-03T17:47:50.369877+00:00",
        "meta_object_name": "SAUDISAT 5B",
        "meta_object_id": "2018-102C",
        "meta_epoch": "2025-12-03T12:50:35.427264",
        "meta_mean_motion": 15.25830217,
        "meta_eccentricity": 0.0012479,
        "meta_inclination": 97.3468,
        "meta_ra_of_asc_node": 40.627,
        "meta_arg_of_pericenter": 107.0302,
        "meta_mean_anomaly": 253.2305,
        "meta_ephemeris_type": 0,
        "meta_classification_type": "U",
        "meta_norad_cat_id": 43833,
        "meta_element_set_no": 999,
        "meta_rev_at_epoch": 38593,
        "meta_bstar": 0.00036555,
        "meta_mean_motion_dot": 9.303e-05,
        "meta_mean_motion_ddot": 0,
        "tle_line1": "1 43833U 18102C   25337.53513226  .00009303  00000+0  36555-3 0  9991",
        "tle_line2": "2 43833  97.3468  40.6270 0012479 107.0302 253.2305 15.25830217385937"
      },
      "geometry": {
        "type": "Point",
        "coordinates": [
          31.11284868533593,
          52.60415864475162
        ]
      }
    },
    {
      "type": "Feature",
      "properties": {
        "norad_id": 44622,
        "name": "GAOFEN-10R",
        "group": "resource",
        "lat": -47.41351245135516,
        "lon": -65.95538776508327,
        "alt_km": 629.8911408657941,
        "timestamp": "2025-12-03T17:47:50.369888+00:00",
        "meta_object_name": "GAOFEN-10R",
        "meta_object_id": "2019-066A",
        "meta_epoch": "2025-12-03T13:09:17.098848",
        "meta_mean_motion": 14.82738219,
        "meta_eccentricity": 0.0008248,
        "meta_inclination": 98.0262,
        "meta_ra_of_asc_node": 285.0195,
        "meta_arg_of_pericenter": 66.9754,
        "meta_mean_anomaly": 293.2328,
        "meta_ephemeris_type": 0,
        "meta_classification_type": "U",
        "meta_norad_cat_id": 44622,
        "meta_element_set_no": 999,
        "meta_rev_at_epoch": 33338,
        "meta_bstar": 0.00035276,
        "meta_mean_motion_dot": 2.796e-05,
        "meta_mean_motion_ddot": 0,
        "tle_line1": "1 44622U 19066A   25337.54811457  .00002796  00000+0  35276-3 0  9994",
        "tle_line2": "2 44622  98.0262 285.0195 0008248  66.9754 293.2328 14.82738219333380"
      },
      "geometry": {
        "type": "Point",
        "coordinates": [
          -65.95538776508327,
          -47.41351245135516
        ]
      }
    },
    {
      "type": "Feature",
      "properties": {
        "norad_id": 44804,
        "name": "CARTOSAT-3",
        "group": "resource",
        "lat": 14.295500630740463,
        "lon": 35.5249910791641,
        "alt_km": 510.9564072320327,
        "timestamp": "2025-12-03T17:47:50.369898+00:00",
        "meta_object_name": "CARTOSAT-3",
        "meta_object_id": "2019-081A",
        "meta_epoch": "2025-12-03T08:14:58.101792",
        "meta_mean_motion": 15.19233546,
        "meta_eccentricity": 0.0013756,
        "meta_inclination": 97.4604,
        "meta_ra_of_asc_node": 37.0456,
        "meta_arg_of_pericenter": 116.7209,
        "meta_mean_anomaly": 243.5436,
        "meta_ephemeris_type": 0,
        "meta_classification_type": "U",
        "meta_norad_cat_id": 44804,
        "meta_element_set_no": 999,
        "meta_rev_at_epoch": 33373,
        "meta_bstar": 0.00015297,
        "meta_mean_motion_dot": 3.161e-05,
        "meta_mean_motion_ddot": 0,
        "tle_line1": "1 44804U 19081A   25337.34372803  .00003161  00000+0  15297-3 0  9996",
        "tle_line2": "2 44804  97.4604  37.0456 0013756 116.7209 243.5436 15.19233546333730"
      },
      "geometry": {
        "type": "Point",
        "coordinates": [
          35.5249910791641,
          14.295500630740463
        ]
      }
    },
    {
      "type": "Feature",
      "properties": {
        "norad_id": 44819,
        "name": "GAOFEN-12 01",
        "group": "resource",
        "lat": -70.59898082222978,
        "lon": 7.2052809093265235,
        "alt_km": 633.7213612589785,
        "timestamp": "2025-12-03T17:47:50.369909+00:00",
        "meta_object_name": "GAOFEN-12 01",
        "meta_object_id": "2019-082A",
        "meta_epoch": "2025-12-03T13:15:25.614720",
        "meta_mean_motion": 14.80639665,
        "meta_eccentricity": 0.0001264,
        "meta_inclination": 97.8128,
        "meta_ra_of_asc_node": 344.0746,
        "meta_arg_of_pericenter": 296.9297,
        "meta_mean_anomaly": 63.1786,
        "meta_ephemeris_type": 0,
        "meta_classification_type": "U",
        "meta_norad_cat_id": 44819,
        "meta_element_set_no": 999,
        "meta_rev_at_epoch": 32514,
        "meta_bstar": 0.00011011,
        "meta_mean_motion_dot": 7.95e-06,
        "meta_mean_motion_ddot": 0,
        "tle_line1": "1 44819U 19082A   25337.55237980  .00000795  00000+0  11011-3 0  9992",
        "tle_line2": "2 44819  97.8128 344.0746 0001264 296.9297  63.1786 14.80639665325142"
      },
      "geometry": {
        "type": "Point",
        "coordinates": [
          7.2052809093265235,
          -70.59898082222978
        ]
      }
    }
  ]
}